0 THOR ABLESTAR DEB
1 00538U 61015FX  13282.31620096  .00001561  00000-0  51880-3 0  6830
2 00538 067.8153 348.7360 0045109 226.7497 132.9847 14.39485159693646
0 THOR ABLESTAR DEB
1 00538U 61015FX  13283.56688486  .00001549  00000-0  51504-3 0  6845
2 00538 067.8152 345.5646 0045025 225.6820 134.0598 14.39488839693826
0 THOR ABLESTAR DEB
1 00538U 61015FX  13285.51238460  .00001423  00000-0  47515-3 0  6854
2 00538 067.8148 340.6315 0044901 223.9932 135.7603 14.39494554694105
0 THOR ABLESTAR DEB
1 00538U 61015FX  13286.55461229  .00001879  00000-0  61922-3 0  6864
2 00538 067.8159 337.9913 0044961 222.8544 136.9062 14.39496179694256
0 THOR ABLESTAR DEB
1 00538U 61015FX  13288.15269085  .00002858  00000-0  92874-3 0  6877
2 00538 067.8155 333.9392 0044853 221.4868 138.2837 14.39505400694481
0 THOR ABLESTAR DEB
1 00538U 61015FX  13289.26439081  .00002552  00000-0  83220-3 0  6882
2 00538 067.8152 331.1202 0044767 220.5409 139.2366 14.39509557694646
0 THOR ABLESTAR DEB
1 00538U 61015FX  13290.51504999  .00002424  00000-0  79147-3 0  6895
2 00538 067.8148 327.9485 0044663 219.4456 140.3402 14.39515834694820
0 THOR ABLESTAR DEB
1 00538U 61015FX  13292.18258649  .00002268  00000-0  74212-3 0  6904
2 00538 067.8147 323.7193 0044536 218.0046 141.7922 14.39522159695065
0 THOR ABLESTAR DEB
1 00538U 61015FX  13293.36375304  .00002707  00000-0  88086-3 0  6916
2 00538 067.8147 320.7238 0044428 216.9842 142.8206 14.39526529695234
0 THOR ABLESTAR DEB
1 00538U 61015FX  13294.47543631  .00002773  00000-0  90168-3 0  6927
2 00538 067.8148 317.9044 0044324 216.0350 143.7772 14.39532245695395
0 THOR ABLESTAR DEB
1 00538U 61015FX  13296.07347368  .00002972  00000-0  96450-3 0  6936
2 00538 067.8150 313.8517 0044167 214.6583 145.1650 14.39539106695625
